ONEWEB-0281             
1 48999U 21060AJ  23274.89045719  .00000049  00000+0  94736-4 0  9994
2 48999  87.9024  65.6667 0001771 100.9945 259.1385 13.16593154109451
ONEWEB-0282             
1 49000U 21060AK  23274.84401170  .00000038  00000+0  66956-4 0  9991
2 49000  87.9025  65.6924 0001845  80.8959 279.2381 13.16593824109425
ONEWEB-0283             
1 49001U 21060AL  23274.83345762  .00000047  00000+0  89666-4 0  9998
2 49001  87.9084  65.6911 0002093  87.1591 272.9779 13.16593699109437
ONEWEB-0284             
1 49002U 21060AM  23274.82712663  .00000031  00000+0  47026-4 0  9993
2 49002  87.9011  65.7124 0001749  81.5978 278.5351 13.16595726109418
ONEWEB-0285             
1 49075U 21075A   23274.80998899  .00000151  00000+0  38373-3 0  9991
2 49075  87.9071 187.3654 0001924  70.9737 289.1600 13.12446196105438
ONEWEB-0286             
1 49076U 21075B   23274.77823463 -.00000112  00000+0 -34718-3 0  9990
2 49076  87.9072 187.3799 0001622  88.7501 271.3813 13.12440180104784
ONEWEB-0287             
1 49077U 21075C   23274.87206629  .00000046  00000+0  84464-4 0  9999
2 49077  87.9172 202.4709 0001557  68.5592 291.5706 13.17652775103345
ONEWEB-0288             
1 49078U 21075D   23274.76340960  .00000215  00000+0  56097-3 0  9993
2 49078  87.9072 187.3881 0001691  73.6131 286.5183 13.12443636105403
